NORAD_CAT_ID,OBJECT_NAME,OBJECT_TYPE,EPOCH,MEAN_MOTION,ECCENTRICITY,INCLINATION,RA_OF_ASC_NODE,ARG_OF_PERICENTER,MEAN_ANOMALY,BSTAR,MEAN_MOTION_DOT,MEAN_MOTION_DDOT,TLE_LINE0,TLE_LINE1,TLE_LINE2,SEMIMAJOR_AXIS,PERIOD,APOGEE,PERIGEE,DECAYED
44767,STARLINK-1062,PAYLOAD,2020-05-12 06:00:00,15.05588527,0.0001553,53.0051,57.0235,68.531,179.2806,0.0030615,0.0004462,0.0,0 STARLINK-1062,1 44767U 19074BG  20133.25001157 +.00044620 +00000-0 +30615-2 0  9992,2 44767 053.0051 057.0235 0001553 068.5310 179.2806 15.05588527001766,6927.837,95.644,550.778,548.626,0.0
44767,STARLINK-1062,PAYLOAD,2020-05-12 22:00:00,15.05596411,0.0001391,53.0053,54.0301,76.0408,187.1697,-0.0019881,-0.0002914,0.0,0 STARLINK-1062,1 44767U 19074BG  20133.91667824 -.00029140 +00000-0 -19881-2 0  9998,2 44767 053.0053 054.0301 0001391 076.0408 187.1697 15.05596411001757,6927.813,95.643,550.641,548.714,0.0
44767,STARLINK-1062,PAYLOAD,2020-05-13 06:00:00,15.05563611,0.0001431,53.0051,52.5348,67.919,203.0021,0.002611,0.00037951,0.0,0 STARLINK-1062,1 44767U 19074BG  20134.25001157  .00037951  00000-0  26110-2 0  9997,2 44767  53.0051  52.5348 0001431  67.9190 203.0021 15.05563611 27888,6927.913000000001,95.645,550.77,548.7869999999998,0.0
44767,STARLINK-1062,PAYLOAD,2020-05-13 14:00:01,15.05562228,0.000134,53.0054,51.0369,77.7789,200.8447,0.002441,0.00035448,0.0,0 STARLINK-1062,1 44767U 19074BG  20134.58334491 +.00035448 +00000-0 +24410-2 0  9993,2 44767 053.0054 051.0369 0001340 077.7789 200.8447 15.05562228001769,6927.917,95.645,550.711,548.854,0.0
44767,STARLINK-1062,PAYLOAD,2020-05-13 22:00:00,15.05597938,0.0001408,53.0053,49.5416,77.3015,209.0111,-0.002074,-0.00030383,0.0,0 STARLINK-1062,1 44767U 19074BG  20134.91667824 -.00030383  00000-0 -20740-2 0  9996,2 44767  53.0053  49.5416 0001408  77.3015 209.0111 15.05597938 27983,6927.808000000001,95.643,550.648,548.697,0.0
44767,STARLINK-1062,PAYLOAD,2020-05-14 06:00:00,15.0557073,0.0001435,53.0049,48.0461,70.0361,223.9873,0.0019729,0.00028575,0.0,0 STARLINK-1062,1 44767U 19074BG  20135.25001157 +.00028575 +00000-0 +19729-2 0  9998,2 44767 053.0049 048.0461 0001435 070.0361 223.9873 15.05570730001754,6927.891,95.645,550.75,548.762,0.0
44767,STARLINK-1062,PAYLOAD,2020-05-14 10:00:01,15.05600321,0.0001421,53.005,47.297,74.8984,43.0323,-0.0023527,-0.00034411,0.0,0 STARLINK-1062,1 44767U 19074BG  20135.41668981 -.00034411  00000-0 -23527-2 0  9999,2 44767  53.0050  47.2970 0001421  74.8984  43.0323 15.05600321 28053,6927.801,95.643,550.65,548.681,0.0
44767,STARLINK-1062,PAYLOAD,2020-05-14 22:00:00,15.05598282,0.0001455,53.0051,45.0531,78.3866,231.0332,-0.002114,-0.00030961,0.0,0 STARLINK-1062,1 44767U 19074BG  20135.91667824 -.00030961 +00000-0 -21140-2 0  9994,2 44767 053.0051 045.0531 0001455 078.3866 231.0332 15.05598282001768,6927.807,95.643,550.68,548.664,0.0
44767,STARLINK-1062,PAYLOAD,2020-05-15 12:00:00,15.05581964,0.0001437,53.0052,42.4339,79.0608,153.8473,-0.00010505,-1.810000000000001e-05,0.0,0 STARLINK-1062,1 44767U 19074BG  20136.50001157 -.00001810  00000-0 -10505-3 0  9996,2 44767  53.0052  42.4339 0001437  79.0608 153.8473 15.05581964 28224,6927.857,95.644,550.717,548.726,0.0
44767,STARLINK-1062,PAYLOAD,2020-05-15 14:00:01,15.0555938,0.0001443,53.0051,42.0597,81.3081,243.5303,0.0030307,0.0004413,0.0,0 STARLINK-1062,1 44767U 19074BG  20136.58334491 +.00044130 +00000-0 +30307-2 0  9995,2 44767 053.0051 042.0597 0001443 081.3081 243.5303 15.05559380001758,6927.926,95.646,550.7909999999998,548.7909999999998,0.0
44767,STARLINK-1062,PAYLOAD,2020-05-15 22:00:01,15.05598615,0.0001536,53.0051,40.5645,78.0772,254.5153,-0.0019904,-0.00029175,0.0,0 STARLINK-1062,1 44767U 19074BG  20136.91668981 -.00029175 +00000-0 -19904-2 0  9990,2 44767 053.0051 040.5645 0001536 078.0772 254.5153 15.05598615001757,6927.806,95.643,550.735,548.607,0.0
44767,STARLINK-1062,PAYLOAD,2020-05-16 14:00:01,15.05561975,0.0001506,53.0055,37.571,81.0412,266.9103,0.0029007,0.00042217,0.0,0 STARLINK-1062,1 44767U 19074BG  20137.58334491 +.00042217 +00000-0 +29007-2 0  9995,2 44767 053.0055 037.5710 0001506 081.0412 266.9103 15.05561975028381,6927.918000000002,95.645,550.827,548.74,0.0
44767,STARLINK-1062,PAYLOAD,2020-05-16 22:00:00,15.05601379,0.0001621,53.0057,36.076,76.969,278.6781,-0.0020819,-0.000305,0.0,0 STARLINK-1062,1 44767U 19074BG  20137.91667824 -.00030500 +00000-0 -20819-2 0  9997,2 44767 053.0057 036.0760 0001621 076.9690 278.6781 15.05601379001804,6927.797,95.643,550.785,548.539,0.0
44767,STARLINK-1062,PAYLOAD,2020-05-17 06:00:00,15.05589877,0.0001601,53.0071,34.5842,71.775,291.5799,0.00015555,1.988e-05,0.0,0 STARLINK-1062,1 44767U 19074BG  20138.25001157 +.00001988 +00000-0 +15555-3 0  9994,2 44767 053.0071 034.5842 0001601 071.7750 291.5799 15.05589877028486,6927.833000000001,95.644,550.807,548.5880000000002,0.0
44767,STARLINK-1062,PAYLOAD,2020-05-17 22:00:00,15.05607046,0.0001686999999999,53.0074,31.5917,77.1785,301.6031,-0.0020474,-0.00030006,0.0,0 STARLINK-1062,1 44767U 19074BG  20138.91667824 -.00030006 +00000-0 -20474-2 0  9996,2 44767 053.0074 031.5917 0001687 077.1785 301.6031 15.05607046001854,6927.78,95.642,550.814,548.476,0.0
44767,STARLINK-1062,PAYLOAD,2020-05-18 14:00:01,15.055706900000002,0.0001624,53.0078,28.5982,82.7103,311.5051,0.0029997,0.00043687,0.0,0 STARLINK-1062,1 44767U 19074BG  20139.58334491  .00043687  00000-0  29997-2 0  9997,2 44767  53.0078  28.5982 0001624  82.7103 311.5051 15.05570690 28689,6927.891,95.645,550.882,548.631,0.0
44767,STARLINK-1062,PAYLOAD,2020-05-18 22:00:00,15.05608698,0.0001727,53.0077,27.1036,77.8013,324.1261,-0.0019271,-0.00028268,0.0,0 STARLINK-1062,1 44767U 19074BG  20139.91667824 -.00028268 +00000-0 -19271-2 0  9997,2 44767 053.0077 027.1036 0001727 077.8013 324.1261 15.05608698001800,6927.775,95.642,550.836,548.443,0.0
44767,STARLINK-1062,PAYLOAD,2020-05-19 06:00:00,15.05578963,0.000174,53.0074,25.6076,74.7663,334.8838,-0.0021133,-0.00030936,0.0,0 STARLINK-1062,1 44767U 19074BG  20140.25001157 -.00030936  00000-0 -21133-2 0  9992,2 44767  53.0074  25.6076 0001740  74.7663 334.8838 15.05578963 28781,6927.866,95.644,550.937,548.526,0.0
44767,STARLINK-1062,PAYLOAD,2020-05-19 14:00:01,15.05582453,0.0001626,53.0052,24.1099,84.9258,332.4485,0.0028386,0.00041325,0.0,0 STARLINK-1062,1 44767U 19074BG  20140.58334491  .00041325  00000-0  28386-2 0  9997,2 44767  53.0052  24.1099 0001626  84.9258 332.4485 15.05582453 28839,6927.855,95.644,550.847,548.594,0.0
44767,STARLINK-1062,PAYLOAD,2020-05-19 22:00:00,15.05581438,0.0001582,53.0049,22.6153,79.2369,345.8407,-0.0018156,-0.00026635,0.0,0 STARLINK-1062,1 44767U 19074BG  20140.91667824 -.00026635  00000-0 -18156-2 0  9996,2 44767  53.0049  22.6153 0001582  79.2369 345.8407 15.05581438 28889,6927.858,95.644,550.819,548.627,0.0
44767,STARLINK-1062,PAYLOAD,2020-05-20 14:00:01,15.05551818,0.000152,53.0047,19.6217,86.2993,354.1565,0.0025588,0.00037171,0.0,0 STARLINK-1062,1 44767U 19074BG  20141.58334491  .00037171  00000-0  25588-2 0  9993,2 44767  53.0047  19.6217 0001520  86.2993 354.1565 15.05551818 28985,6927.949000000001,95.646,550.867,548.761,0.0
44767,STARLINK-1062,PAYLOAD,2020-05-20 22:00:00,15.055771900000002,0.000161,53.0044,18.1271,81.2774,6.8577,-0.0015289,-0.00022483,0.0,0 STARLINK-1062,1 44767U 19074BG  20141.91667824 -.00022483 +00000-0 -15289-2 0  9998,2 44767 053.0044 018.1271 0001610 081.2774 006.8577 15.05577190001760,6927.871999999999,95.644,550.852,548.621,0.0
44767,STARLINK-1062,PAYLOAD,2020-05-21 06:00:00,15.05582554,0.000157,53.0042,16.6306,79.0112,16.8057,-0.0017916,-0.00026288,0.0,0 STARLINK-1062,1 44767U 19074BG  20142.25001157 -.00026288  00000-0 -17916-2 0  9993,2 44767  53.0042  16.6306 0001570  79.0112  16.8057 15.05582554 29085,6927.855,95.644,550.808,548.632,0.0
44767,STARLINK-1062,PAYLOAD,2020-05-21 20:00:01,15.05588758,0.0001608,53.0043,14.0123,83.4218,295.8576,-0.0021622,-0.0003165,0.0,0 STARLINK-1062,1 44767U 19074BG  20142.83334491 -.00031650  00000-0 -21622-2 0  9995,2 44767  53.0043  14.0123 0001608  83.4218 295.8576 15.05588758 29170,6927.8359999999975,95.644,550.815,548.587,0.0
44767,STARLINK-1062,PAYLOAD,2020-05-21 22:00:00,15.05614493,0.0001361,53.0043,13.639,79.1951,32.0074,0.011536,0.00172118,0.0,0 STARLINK-1062,1 44767U 19074BG  20142.91667824  .00172118  00000-0  11536-1 0  9998,2 44767  53.0043  13.6390 0001361  79.1951  32.0074 15.05614493 29184,6927.757,95.642,550.565,548.679,0.0
44767,STARLINK-1062,PAYLOAD,2020-05-22 06:00:00,15.05586463,0.0001617,53.004,12.1419,80.5253,38.3555,-0.001884,-0.00027628,0.0,0 STARLINK-1062,1 44767U 19074BG  20143.25001157 -.00027628  00000-0 -18840-2 0  9990,2 44767  53.0040  12.1419 0001617  80.5253  38.3555 15.05586463 29247,6927.843000000003,95.644,550.828,548.5880000000002,0.0
44767,STARLINK-1062,PAYLOAD,2020-05-22 14:00:01,15.05567022,0.0001496,53.004,10.6445,89.6348,36.9433,0.0093712,0.00138928,0.0,0 STARLINK-1062,1 44767U 19074BG  20143.58334491  .00138928  00000-0  93712-2 0  9991,2 44767  53.0040  10.6445 0001496  89.6348  36.9433 15.05567022 29293,6927.903,95.645,550.804,548.731,0.0
44767,STARLINK-1062,PAYLOAD,2020-05-22 18:00:00,15.05618963,0.0001541,53.004,9.8972,86.6118,223.8134,-0.0018474,-0.00027122,0.0,0 STARLINK-1062,1 44767U 19074BG  20143.75001157 -.00027122 +00000-0 -18474-2 0  9997,2 44767 053.0040 009.8972 0001541 086.6118 223.8134 15.05618963029310,6927.743,95.642,550.6759999999998,548.5409999999998,0.0
44767,STARLINK-1062,PAYLOAD,2020-05-23 14:00:01,15.0556967,0.0001439,53.0042,6.1555,88.8407,60.9081,0.0018892,0.00027346,0.0,0 STARLINK-1062,1 44767U 19074BG  20144.58334491 +.00027346 +00000-0 +18892-2 0  9999,2 44767 053.0042 006.1555 0001439 088.8407 060.9081 15.05569670001759,6927.895,95.645,550.756,548.763,0.0
